[{"OBJECT_NAME":"STARLINK-35331","OBJECT_ID":"2025-262N","EPOCH":"2026-03-09T23:00:27.092160","MEAN_MOTION":15.27596289,"ECCENTRICITY":0.00011879,"INCLINATION":43.0006,"RA_OF_ASC_NODE":294.9859,"ARG_OF_PERICENTER":285.6938,"MEAN_ANOMALY":74.3783,"EPHEMERIS_TYPE":0,"CLASSIFICATION_TYPE":"U","NORAD_CAT_ID":66468,"ELEMENT_SET_NO":999,"REV_AT_EPOCH":1894,"BSTAR":0.0011637099,"MEAN_MOTION_DOT":0.00031915,"MEAN_MOTION_DDOT":0},{"OBJECT_NAME":"ELECTRON KICK STAGE R\/B","OBJECT_ID":"2025-061J","EPOCH":"2026-03-09T21:50:35.145600","MEAN_MOTION":15.31602074,"ECCENTRICITY":0.00402669,"INCLINATION":97.5479,"RA_OF_ASC_NODE":52.3854,"ARG_OF_PERICENTER":150.2628,"MEAN_ANOMALY":210.0914,"EPHEMERIS_TYPE":0,"CLASSIFICATION_TYPE":"U","NORAD_CAT_ID":63359,"ELEMENT_SET_NO":999,"REV_AT_EPOCH":5306,"BSTAR":0.0006963674,"MEAN_MOTION_DOT":0.00021749,"MEAN_MOTION_DDOT":0}]
